STARLINK-1168
1 25072C 20006AE  21325.03109148  .00003606  00000-0  24165-3 0  3254
2 25072  53.0515 113.0927 0001550  77.4016 312.5588 15.06392860    11
